      2.10          N: GNSS NAV DATA                        RINEX VERSION / TYPE
fic2rin                                 01/30/2019 00:20:07 PGM / RUN BY / DATE
                                                            END OF HEADER
22 19  1 29 11 59 44.0-6.335875950754e-04-8.412825991400e-12 0.000000000000e+00
    5.000000000000e+00-5.218750000000e+00 5.682022393325e-09 4.670319330232e-01
   -2.440065145493e-07 7.119086454622e-03 7.295981049538e-06 5.153588956833e+03
    2.159840000000e+05-8.195638656616e-08 1.243496254667e-01-5.587935447693e-09
    9.269633517672e-01 2.257500000000e+02-1.428226717890e+00-8.709648506106e-09
    2.807259790781e-10 1.000000000000e+00 2.038000000000e+03 0.000000000000e+00
    2.400000000000e+00 0.000000000000e+00-1.816079020500e-08 5.000000000000e+00
    2.142060000000e+05 4.000000000000e+00
12 19  1 29 11 59 44.0 2.724113874137e-04-3.183231456205e-12 0.000000000000e+00
    6.000000000000e+00 4.871875000000e+01 4.054454598594e-09-2.255810126838e+00
    2.540647983551e-06 7.366352598183e-03 4.258006811142e-06 5.153707342148e+03
    2.159840000000e+05 2.235174179077e-08-2.883340054595e+00-8.754432201385e-08
    9.844077998733e-01 3.099062500000e+02 1.026804483900e+00-7.926044437279e-09
    9.357532635937e-11 1.000000000000e+00 2.038000000000e+03 0.000000000000e+00
    2.400000000000e+00 0.000000000000e+00-1.257285475731e-08 6.000000000000e+00
    2.145060000000e+05 4.000000000000e+00
 3 19  1 29 13 59 44.0 1.801606267691e-04 2.160049916711e-12 0.000000000000e+00
    3.500000000000e+01-6.562500000000e+00 4.788770900101e-09-9.391445322594e-01
   -2.961605787277e-07 1.886222627945e-03 7.353723049164e-06 5.153588211060e+03
    2.231840000000e+05-5.587935447693e-09 1.929820424081e-01 1.117587089539e-08
    9.626028727763e-01 2.411562500000e+02 6.606743688365e-01-8.107837723985e-09
    3.239420649158e-10 1.000000000000e+00 2.038000000000e+03 0.000000000000e+00
    2.400000000000e+00 0.000000000000e+00 2.328306436539e-09 3.500000000000e+01
    2.160060000000e+05 4.000000000000e+00
 5 19  1 29 13 59 44.0 9.587965905666e-07 1.136868377216e-13 0.000000000000e+00
    8.000000000000e+01-9.250000000000e+00 5.084140346281e-09 3.038962256016e+00
   -5.196779966354e-07 5.556486430578e-03 7.053837180138e-06 5.153613142014e+03
    2.231840000000e+05-3.911554813385e-08 1.677708495407e-01-9.313225746155e-08
    9.494863448888e-01 2.391250000000e+02 7.195026599109e-01-8.153196756228e-09
    2.575107263554e-10 1.000000000000e+00 2.038000000000e+03 0.000000000000e+00
    2.400000000000e+00 0.000000000000e+00-1.117587089539e-08 8.000000000000e+01
    2.160060000000e+05 4.000000000000e+00
24 19  1 29 13 59 44.0-6.145332008600e-05-5.684341886081e-13 0.000000000000e+00
    1.000000000000e+01 6.368750000000e+01 4.983779022972e-09 4.261455553815e-01
    3.430992364883e-06 8.132565300912e-03 9.005889296532e-06 5.153734291077e+03
    2.231840000000e+05 1.676380634308e-08 2.238525771675e+00 1.620501279831e-07
    9.393809471356e-01 1.917500000000e+02 5.861675560715e-01-8.310346159274e-09
   -2.564392531528e-10 1.000000000000e+00 2.038000000000e+03 0.000000000000e+00
    2.400000000000e+00 0.000000000000e+00 2.793967723846e-09 1.000000000000e+01
    2.160060000000e+05 4.000000000000e+00
14 19  1 29 13 59 44.0-9.235134348273e-05 6.821210263297e-13 0.000000000000e+00
    5.000000000000e+00-1.053125000000e+01 4.676980529298e-09 2.046805564867e+00
   -7.282942533493e-07 1.008600683417e-02 8.713454008102e-06 5.153663272858e+03
    2.231840000000e+05 1.676380634308e-08 1.317413460244e+00-2.868473529816e-07
    9.602877990642e-01 2.104062500000e+02-1.948470688299e+00-7.928187383685e-09
   -3.207276453081e-10 1.000000000000e+00 2.038000000000e+03 0.000000000000e+00
    2.400000000000e+00 0.000000000000e+00-9.778887033463e-09 5.000000000000e+00
    2.160060000000e+05 4.000000000000e+00
12 19  1 29 13 59 44.0 2.723890356719e-04-3.183231456205e-12 0.000000000000e+00
    7.000000000000e+00 4.690625000000e+01 4.124814672231e-09-1.205627205544e+00
    2.494081854820e-06 7.366204750724e-03 4.319474101067e-06 5.153707735062e+03
    2.231840000000e+05 1.154839992523e-07-2.883396899203e+00 9.872019290924e-08
    9.844075175301e-01 3.085000000000e+02 1.026778092858e+00-8.082836682592e-09
   -1.142904749427e-11 1.000000000000e+00 2.038000000000e+03 0.000000000000e+00
    2.400000000000e+00 0.000000000000e+00-1.257285475731e-08 7.000000000000e+00
    2.160060000000e+05 4.000000000000e+00
22 19  1 29 13 59 44.0-6.336485967040e-04-8.412825991400e-12 0.000000000000e+00
    3.800000000000e+01-6.906250000000e+00 5.584161174156e-09 1.517259978025e+00
   -4.731118679047e-07 7.119252695702e-03 7.191672921181e-06 5.153589275360e+03
    2.231840000000e+05 5.587935447693e-08 1.242870784043e-01-2.104789018631e-07
    9.269665570207e-01 2.254687500000e+02-1.428213844211e+00-8.478210294347e-09
    3.468001599044e-10 1.000000000000e+00 2.038000000000e+03 0.000000000000e+00
    2.400000000000e+00 0.000000000000e+00-1.816079020500e-08 3.800000000000e+01
    2.160060000000e+05 4.000000000000e+00
13 19  1 29 13 59 44.0-7.666274905205e-05 1.250555214938e-12 0.000000000000e+00
    2.700000000000e+01-1.125000000000e+00 4.576976363723e-09 1.176760342780e+00
   -8.754432201385e-08 3.735404345207e-03 8.570030331612e-06 5.153662508011e+03
    2.231840000000e+05-8.009374141693e-08 1.361022484964e+00 9.313225746155e-09
    9.677059026180e-01 2.187812500000e+02 1.375651509224e+00-7.961760210699e-09
   -2.789401904071e-10 1.000000000000e+00 2.038000000000e+03 0.000000000000e+00
    2.400000000000e+00 0.000000000000e+00-1.117587089539e-08 2.700000000000e+01
    2.160060000000e+05 4.000000000000e+00
 2 19  1 29 14  0  0.0-1.259334385395e-04-1.000444171950e-11 0.000000000000e+00
    2.600000000000e+01-3.971875000000e+01 4.711981987249e-09 4.304376868060e-01
   -2.210959792137e-06 1.883360370994e-02 9.020790457726e-06 5.153641473770e+03
    2.232000000000e+05-3.352761268616e-07-9.156030833664e-01-4.097819328308e-08
    9.533230348052e-01 2.051875000000e+02-1.782949338631e+00-8.414279059926e-09
    1.228622605635e-10 1.000000000000e+00 2.038000000000e+03 0.000000000000e+00
    2.400000000000e+00 0.000000000000e+00-2.048909664154e-08 2.600000000000e+01
    2.160060000000e+05 4.000000000000e+00
 1 19  1 29 14  0  0.0-1.537203788757e-04-6.707523425575e-12 0.000000000000e+00
    3.300000000000e+01-5.359375000000e+01 4.169102231271e-09 1.125150892651e-01
   -2.767890691757e-06 8.316665771417e-03 8.862465620041e-06 5.153662940979e+03
    2.232000000000e+05 5.774199962616e-08-8.493203074285e-01 1.136213541031e-07
    9.742571160280e-01 2.188437500000e+02 6.858038182304e-01-7.960331579762e-09
    2.017941198208e-10 1.000000000000e+00 2.038000000000e+03 0.000000000000e+00
    2.400000000000e+00 0.000000000000e+00 5.587935447693e-09 3.300000000000e+01
    2.160060000000e+05 4.000000000000e+00
 8 19  1 29 14  0  0.0-1.308242790401e-04-1.364242052659e-12 0.000000000000e+00
    6.000000000000e+00-5.084375000000e+01 4.307679432139e-09 2.635299001227e+00
   -2.617016434669e-06 4.191425163299e-03 4.665926098824e-06 5.153690965652e+03
    2.232000000000e+05 1.862645149231e-08-1.915869779804e+00 1.303851604462e-08
    9.699372271959e-01 2.941250000000e+02-3.671291725408e-01-8.118195298277e-09
   -9.964700784071e-11 1.000000000000e+00 2.038000000000e+03 0.000000000000e+00
    2.400000000000e+00 0.000000000000e+00 5.122274160385e-09 6.000000000000e+00
    2.160060000000e+05 4.000000000000e+00
 7 19  1 29 14  0  0.0 4.261732101440e-05-7.162270776462e-12 0.000000000000e+00
    2.700000000000e+01 5.421875000000e+01 4.583405202938e-09-5.134793435843e-01
    2.795830368996e-06 1.216983702034e-02 9.007751941681e-06 5.153617410660e+03
    2.232000000000e+05 7.636845111847e-08 2.302469155814e+00 1.937150955200e-07
    9.562978933486e-01 2.035000000000e+02-2.478348834457e+00-8.201055892610e-09
   -2.632252501025e-10 1.000000000000e+00 2.038000000000e+03 0.000000000000e+00
    2.400000000000e+00 0.000000000000e+00-1.117587089539e-08 2.700000000000e+01
    2.160060000000e+05 4.000000000000e+00
 6 19  1 29 14  0  0.0 2.870108000934e-04-7.844391802792e-12 0.000000000000e+00
    2.800000000000e+01-4.284375000000e+01 4.110171205129e-09 3.678268220807e-01
   -2.276152372360e-06 1.411568489857e-03 9.087845683098e-06 5.153787113190e+03
    2.232000000000e+05-3.539025783539e-08-8.576124855167e-01-3.725290298462e-08
    9.739245713419e-01 2.073125000000e+02-1.194228898347e+00-7.869970673011e-09
    2.332240004300e-10 1.000000000000e+00 2.038000000000e+03 0.000000000000e+00
    2.400000000000e+00 0.000000000000e+00 4.656612873077e-09 2.800000000000e+01
    2.160060000000e+05 4.000000000000e+00
16 19  1 29 14  0  0.0-1.578126102686e-05-2.387423592154e-12 0.000000000000e+00
    2.400000000000e+01 5.940625000000e+01 3.991594837375e-09-3.096617842700e+00
    2.970919013023e-06 1.051292859484e-02 4.718080163002e-06 5.153768865585e+03
    2.232000000000e+05-8.381903171539e-08-2.864496174632e+00-8.754432201385e-08
    9.847793049937e-01 3.028125000000e+02 5.320750833829e-01-7.899614764949e-09
    6.178828801592e-11 1.000000000000e+00 2.038000000000e+03 0.000000000000e+00
    2.400000000000e+00 0.000000000000e+00-1.071020960808e-08 2.400000000000e+01
    2.160060000000e+05 4.000000000000e+00
27 19  1 29 14  0  0.0-5.767913535237e-05-6.934897101019e-12 0.000000000000e+00
    3.400000000000e+01-5.778125000000e+01 4.084098690532e-09 2.298368738341e+00
   -2.954155206680e-06 6.570882396773e-03 4.895031452179e-06 5.153637615204e+03
    2.232000000000e+05-8.195638656616e-08-1.905441717913e+00-2.235174179077e-08
    9.781871957088e-01 2.947500000000e+02 4.260100920932e-01-8.059978587603e-09
   -9.643258823294e-11 1.000000000000e+00 2.038000000000e+03 0.000000000000e+00
    2.400000000000e+00 0.000000000000e+00 1.396983861923e-09 3.400000000000e+01
    2.160060000000e+05 4.000000000000e+00
